0 RADUGA 2
1 09416U 76092A   13279.69207328 -.00000008  00000-0  10000-3 0  9569
2 09416 012.8896 328.9834 0025628 250.7431 108.9703 01.00264935 82859
0 RADUGA 2
1 09416U 76092A   13282.68401631 -.00000013  00000-0  10000-3 0  9572
2 09416 012.8869 328.9540 0025731 251.8555 107.8497 01.00265509 82886
0 RADUGA 2
1 09416U 76092A   13283.68135770  .00000000  00000-0  10000-3 0  9598
2 09416 012.8863 328.9464 0025708 250.8983 108.8124 01.00261388 82893
0 RADUGA 2
1 09416U 76092A   13287.67053162 -.00000023  00000-0  10000-3 0  9580
2 09416 012.8823 328.9038 0025600 251.4202 108.2752 01.00266493 82936
0 RADUGA 2
1 09416U 76092A   13289.66511123 -.00000023  00000-0  10000-3 0  9598
2 09416 012.8805 328.8838 0025792 251.7149 107.9677 01.00266884 82956
0 RADUGA 2
1 09416U 76092A   13292.65697668 -.00000019  00000-0  10000-3 0  9607
2 09416 012.8777 328.8535 0025808 251.7571 107.9174 01.00267514 82981
